{"version": 0.6, "generator": "Overpass API 0.7.62.10 2d4cfc48", "osm3s": {"timestamp_osm_base": "2026-02-10T13:01:44Z", "copyright": "The data included in this document is from www.openstreetmap.org. The data is made available under ODbL."}, "elements": [{"type": "node", "id": 2681027233, "lat": 28.5930335, "lon": 77.1805374}, {"type": "node", "id": 2681027294, "lat": 28.5925986, "lon": 77.1815864}, {"type": "node", "id": 2681027302, "lat": 28.5936647, "lon": 77.1808646}, {"type": "node", "id": 2681027339, "lat": 28.5932631, "lon": 77.1819297}, {"type": "node", "id": 7138493175, "lat": 28.5859822, "lon": 77.1962103, "tags": {"addr:district": "New Delhi", "addr:full": "D-II/257,259, Vinay Marg, Chankyapuri, Yashwant Place", "addr:postcode": "110029", "addr:state": "Delhi", "amenity": "clinic", "contact:phone": "011-24673777", "description": "Dispensaries", "health_facility:type": "dispensary", "healthcare": "centre", "name": "CGHS Wellness Centre Chankyapuri", "source": "OpenGovernmentData"}}, {"type": "node", "id": 11804801569, "lat": 28.5926338, "lon": 77.1815016}, {"type": "way", "id": 262439881, "nodes": [2681027233, 11804801569, 2681027294, 2681027339, 2681027302, 2681027233], "tags": {"addr:district": "New Delhi", "addr:full": "2, Chandragupt Marg, Chanakyapuri", "addr:postcode": "110021", "addr:state": "Delhi", "amenity": "hospital", "barrier": "wall", "contact:phone": "011-66206620", "description": "100-500 Bedded Hospital", "name": "Primus Super Specialty Hospital", "source": "OpenGovernmentData"}}]}