{"version": 0.6, "generator": "Overpass API 0.7.62.10 2d4cfc48", "osm3s": {"timestamp_osm_base": "2026-02-10T12:56:30Z", "copyright": "The data included in this document is from www.openstreetmap.org. The data is made available under ODbL."}, "elements": [{"type": "node", "id": 728300509, "lat": 28.5920363, "lon": 77.0440217}, {"type": "node", "id": 728300516, "lat": 28.5933182, "lon": 77.0441257}, {"type": "node", "id": 728300536, "lat": 28.5929005, "lon": 77.04476}, {"type": "node", "id": 992920693, "lat": 28.5965201, "lon": 77.0493833, "tags": {"addr:district": "South West", "addr:full": "Plot No. 2, Dwarka, Sector 12", "addr:postcode": "110075", "addr:state": "Delhi", "amenity": "hospital", "contact:phone": "42811114", "description": "<100 Bedded Hospital", "name": "Ayushman Hospital", "source": "OpenGovernmentData"}}, {"type": "node", "id": 995630812, "lat": 28.5866431, "lon": 77.0573761, "tags": {"addr:district": "South West", "addr:full": "Sec-10, Dwarka, Golok Dham Mandir", "addr:postcode": "110075", "addr:state": "Delhi", "amenity": "hospital", "contact:phone": "25081423", "name": "Govt Dispensory", "source": "OpenGovernmentData"}}, {"type": "node", "id": 2000516504, "lat": 28.5924548, "lon": 77.0433834}, {"type": "node", "id": 2195195207, "lat": 28.5959395, "lon": 77.0245451}, {"type": "node", "id": 2195195209, "lat": 28.597833, "lon": 77.0223565}, {"type": "node", "id": 2195195212, "lat": 28.596476, "lon": 77.0246058}, {"type": "node", "id": 2195195219, "lat": 28.5971453, "lon": 77.0247275}, {"type": "node", "id": 2195195221, "lat": 28.598238, "lon": 77.0227856}, {"type": "node", "id": 2195195222, "lat": 28.5981909, "lon": 77.023998}, {"type": "node", "id": 2195195225, "lat": 28.5972301, "lon": 77.0239121}, {"type": "node", "id": 2195195228, "lat": 28.5959584, "lon": 77.0223136}, {"type": "node", "id": 2197443653, "lat": 28.577861, "lon": 77.0482026}, {"type": "node", "id": 2197445993, "lat": 28.5778594, "lon": 77.048558}, {"type": "node", "id": 2203319722, "lat": 28.5888028, "lon": 77.0382585}, {"type": "node", "id": 2203319723, "lat": 28.5892819, "lon": 77.0375243}, {"type": "node", "id": 2246706233, "lat": 28.5775878, "lon": 77.0481383}, {"type": "node", "id": 2246706236, "lat": 28.5775847, "lon": 77.0484787}, {"type": "node", "id": 2659476913, "lat": 28.6118563, "lon": 77.076635}, {"type": "node", "id": 2659476952, "lat": 28.6106833, "lon": 77.0743976}, {"type": "node", "id": 2659476963, "lat": 28.610681, "lon": 77.0742143}, {"type": "node", "id": 2659476979, "lat": 28.6118404, "lon": 77.077011}, {"type": "node", "id": 2659476991, "lat": 28.6110814, "lon": 77.0743058}, {"type": "node", "id": 2659477009, "lat": 28.6110796, "lon": 77.0744045}, {"type": "node", "id": 2659477026, "lat": 28.6120585, "lon": 77.0766501}, {"type": "node", "id": 2659477034, "lat": 28.6110772, "lon": 77.0742275}, {"type": "node", "id": 2659477050, "lat": 28.6120462, "lon": 77.0770145}, {"type": "node", "id": 2837721615, "lat": 28.5934733, "lon": 77.0785391}, {"type": "node", "id": 2838850123, "lat": 28.5880343, "lon": 77.0379896}, {"type": "node", "id": 2838850128, "lat": 28.5886424, "lon": 77.0385042}, {"type": "node", "id": 2838850129, "lat": 28.5886738, "lon": 77.0370096}, {"type": "node", "id": 2942071929, "lat": 28.5883536, "lon": 77.0375004}, {"type": "node", "id": 2942071930, "lat": 28.5885893, "lon": 77.0376998}, {"type": "node", "id": 2942071931, "lat": 28.5889095, "lon": 77.0372091}, {"type": "node", "id": 4859968811, "lat": 28.5934549, "lon": 77.0816478, "tags": {"addr:city": "Mahavir Enclave", "addr:postcode": "110045", "addr:street": "Dabri Road", "amenity": "hospital", "name": "Bhagat Chandra Hospital"}}, {"type": "node", "id": 6199393209, "lat": 28.5910628, "lon": 77.0815514}, {"type": "node", "id": 6199393212, "lat": 28.5913644, "lon": 77.0814797}, {"type": "node", "id": 6199393214, "lat": 28.5916603, "lon": 77.0822051}, {"type": "node", "id": 6199393215, "lat": 28.5918346, "lon": 77.0821488}, {"type": "node", "id": 6199393216, "lat": 28.5919877, "lon": 77.0819691}, {"type": "node", "id": 6199393217, "lat": 28.5920795, "lon": 77.0816955}, {"type": "node", "id": 6199393218, "lat": 28.5920819, "lon": 77.0813093}, {"type": "node", "id": 6199393219, "lat": 28.5909302, "lon": 77.0815828}, {"type": "node", "id": 6199393220, "lat": 28.5908572, "lon": 77.0822668}, {"type": "node", "id": 6466294311, "lat": 28.6121754, "lon": 77.0886731, "tags": {"amenity": "hospital", "healthcare": "hospital", "name": "World Brain Center Hospital"}}, {"type": "node", "id": 7138493138, "lat": 28.5777752, "lon": 77.0483255, "tags": {"addr:district": "South West", "addr:full": "Sec-19, Dwarka, Near Amrahi Village", "addr:postcode": "110075", "addr:state": "Delhi", "amenity": "clinic", "contact:phone": "28041571", "description": "Dispensaries", "health_facility:type": "dispensary", "healthcare": "centre", "name": "DGD Sec 19 Dwarka", "source": "OpenGovernmentData"}}, {"type": "node", "id": 7138493141, "lat": 28.5874217, "lon": 77.0702439, "tags": {"addr:district": "South West", "addr:full": "A-132, Palam Extension, Sector-7", "addr:postcode": "110075", "addr:state": "Delhi", "amenity": "hospital", "contact:phone": "25075530", "description": "<100 Bedded Hospital", "name": "Bharti Nursingh Home", "source": "OpenGovernmentData"}}, {"type": "node", "id": 7138493154, "lat": 28.6174492, "lon": 77.004094, "tags": {"addr:district": "South West", "addr:full": "Khasra no 254, Nangli Sakrawati, Near Mcd Primary School", "addr:postcode": "110043", "addr:state": "Delhi", "amenity": "clinic", "contact:phone": "25322468", "description": "Dispensaries", "health_facility:type": "dispensary", "healthcare": "centre", "name": "DGD Nangli Sakrawati", "source": "OpenGovernmentData"}}, {"type": "node", "id": 7138493173, "lat": 28.6179621, "lon": 77.0737965, "tags": {"addr:district": "South West", "addr:full": "D-2/132, PANKHA ROAD, Jeevan Park", "addr:postcode": "110059", "addr:state": "Delhi", "amenity": "clinic", "contact:phone": "011-25631169", "description": "Dispensaries", "health_facility:type": "dispensary", "healthcare": "centre", "name": "DGD Jeevan Park", "source": "OpenGovernmentData"}}, {"type": "node", "id": 7138493181, "lat": 28.6174089, "lon": 77.0161095, "tags": {"addr:district": "South West", "addr:full": "H.No 13/14 Gali No.1 Ranaji Enclave, Near Nangli Dairy Bus Stand", "addr:postcode": "110043", "addr:state": "Delhi", "amenity": "clinic", "contact:phone": "25322585", "description": "Dispensaries", "health_facility:type": "dispensary", "healthcare": "centre", "name": "SPUHC Ranaji Enclave", "source": "OpenGovernmentData"}}, {"type": "node", "id": 7138493197, "lat": 28.5745814, "lon": 77.0323753, "tags": {"addr:district": "South West", "addr:full": "Samta Enclave, Qutub Vihar, Near Tarun Properties", "addr:postcode": "110071", "addr:state": "Delhi", "amenity": "clinic", "description": "Dispensaries", "health_facility:type": "dispensary", "healthcare": "centre", "name": "PUHC Qutub Vihar", "source": "OpenGovernmentData"}}, {"type": "node", "id": 7138493199, "lat": 28.5862424, "lon": 77.0875445, "tags": {"addr:district": "South West", "addr:full": "Divya Prastha Hospital, Opp.Bagh Wala School, Raj Nagar Part I, Main Road, Palam Colony", "addr:postcode": "110045", "addr:state": "Delhi", "amenity": "hospital", "contact:phone": "2536 5960", "description": "<100 Bedded Hospital", "name": "Divya Prastha Hospital", "source": "OpenGovernmentData"}}, {"type": "node", "id": 7138493202, "lat": 28.5917177, "lon": 77.0891933, "tags": {"addr:district": "South West", "addr:full": "Mangla Puri, Sadh Nagar", "addr:postcode": "110045", "addr:state": "Delhi", "amenity": "clinic", "contact:phone": "25056509", "description": "Dispensaries", "health_facility:type": "dispensary", "healthcare": "centre", "name": "CGHS Sadh Nagar", "source": "OpenGovernmentData"}}, {"type": "node", "id": 7138493206, "lat": 28.6089466, "lon": 77.1008845, "tags": {"addr:district": "South West", "addr:full": "Street Number 12, Sagar Pur, Vashist Park Sagar Pur", "addr:postcode": "110046", "addr:state": "Delhi", "amenity": "hospital", "contact:phone": "28523683", "description": "<100 Bedded Hospital", "name": "Kesar Nursing Home Dabri", "source": "OpenGovernmentData"}}, {"type": "node", "id": 7138493230, "lat": 28.58391, "lon": 77.0726038, "tags": {"addr:district": "South West", "addr:full": "Sector 7, Dwarka, Opposite Shruti Appartment", "addr:postcode": "110075", "addr:state": "Delhi", "amenity": "clinic", "contact:phone": "25088415", "description": "Dispensaries", "health_facility:type": "dispensary", "healthcare": "centre", "name": "ESI Palam Colony", "source": "OpenGovernmentData"}}, {"type": "node", "id": 7138493232, "lat": 28.5917228, "lon": 77.02906, "tags": {"addr:district": "South West", "addr:full": "Delhi Govt. Building, Sec-17, New Delhi-75", "addr:postcode": "110075", "addr:state": "Delhi", "amenity": "clinic", "description": "Dispensaries", "health_facility:type": "dispensary", "healthcare": "centre", "name": "DGD Sec 17 Dwarka", "source": "OpenGovernmentData"}}, {"type": "node", "id": 7138493235, "lat": 28.5964391, "lon": 77.0457328, "tags": {"addr:district": "South West", "addr:full": "HAF-B, Sector-12, Dwarka, Phase-1", "addr:postcode": "110075", "addr:state": "Delhi", "amenity": "hospital", "contact:phone": "4822 2222", "healthcare": "hospital", "name": "Medeor Hospital", "source": "OpenGovernmentData"}}, {"type": "node", "id": 7138493238, "lat": 28.6081283, "lon": 77.0952919, "tags": {"addr:district": "South West", "addr:full": "RZ-I-81A, Sagarpur", "addr:postcode": "110046", "addr:state": "Delhi", "amenity": "hospital", "contact:phone": "25383171", "description": "<100 Bedded Hospital", "name": "Shakuntla Nursing Home Sagarpur", "source": "OpenGovernmentData"}}, {"type": "node", "id": 7138493264, "lat": 28.5882997, "lon": 77.0887312, "tags": {"addr:district": "South West", "addr:full": "C-40, Sadh Nagar, Palam Colony, Street No-9", "addr:postcode": "110045", "addr:state": "Delhi", "amenity": "hospital", "contact:phone": "25055191", "description": "<100 Bedded Hospital", "name": "Singhal Hospital Palam Colony", "source": "OpenGovernmentData"}}, {"type": "node", "id": 7138493267, "lat": 28.5938928, "lon": 77.0441507, "tags": {"addr:district": "South West", "addr:full": "Sec 12, Dwarka", "addr:postcode": "110075", "addr:state": "Delhi", "amenity": "clinic", "check_date": "2025-03-09", "description": "Dispensaries", "health_facility:type": "dispensary", "healthcare": "centre", "name": "Health Centre Sec 12 Dwarka", "source": "OpenGovernmentData"}}, {"type": "node", "id": 7138493269, "lat": 28.6027805, "lon": 77.0240327, "tags": {"addr:district": "South West", "addr:full": "Sec 14, Near Sec 14 Metro Station, Dwarka", "addr:postcode": "110075", "addr:state": "Delhi", "amenity": "clinic", "description": "Dispensaries", "health_facility:type": "dispensary", "healthcare": "centre", "name": "DGD Sec 14 Dwarka", "source": "OpenGovernmentData"}}, {"type": "node", "id": 7305795496, "lat": 28.5935936, "lon": 77.0781143}, {"type": "node", "id": 7305795497, "lat": 28.5939398, "lon": 77.0784779}, {"type": "node", "id": 7305795498, "lat": 28.5938063, "lon": 77.0788341}, {"type": "node", "id": 7543715668, "lat": 28.6054061, "lon": 77.0535572, "tags": {"addr:district": "West Delhi", "addr:full": "Hospital Plot, Road Number 201, Dwarka", "addr:postcode": "110075", "addr:state": "Delhi", "amenity": "hospital", "name": "Aakash Healthcare Super Speciality Hospital", "source": "Local Knowledge"}}, {"type": "node", "id": 7543715735, "lat": 28.607392, "lon": 77.0491427, "tags": {"addr:district": "West Delhi", "addr:full": "Plot #1, Karuna Kunj, Near Delhi Public School, Sector-3, Dwarka", "addr:postcode": "110078", "addr:state": "Delhi", "amenity": "hospital", "name": "Khushi Hospital", "source": "Local Knowledge"}}, {"type": "node", "id": 7545203152, "lat": 28.5982541, "lon": 77.041201, "tags": {"addr:district": "South West Delhi", "addr:full": "Plot no. 54, Sec-12/A, Opposite Bal Bharti School, Dwarka", "addr:postcode": "110075", "addr:state": "Delhi", "amenity": "hospital", "name": "Shree Hospital", "source": "Local Knowledge"}}, {"type": "node", "id": 7545203164, "lat": 28.6184538, "lon": 77.0658712, "tags": {"addr:district": "South West Delhi", "addr:full": "Vijay Vihar, Block E, Uttam Nagar East, Uttam Nagar", "addr:postcode": "110059", "addr:state": "Delhi", "amenity": "hospital", "name": "Bm Hospital", "source": "Local Knowledge"}}, {"type": "node", "id": 7545203169, "lat": 28.5873313, "lon": 77.0846422, "tags": {"addr:district": "South West Delhi", "addr:full": "RZ-13-I/6, Main Road, Raj Nagar I", "addr:postcode": "110077", "addr:state": "Delhi", "amenity": "hospital", "name": "Sunil Memorial Nursing Home", "source": "Local Knowledge"}}, {"type": "node", "id": 7545203173, "lat": 28.5929199, "lon": 77.0637613, "tags": {"addr:district": "South West Delhi", "addr:full": "Sector 6, Dwarka", "addr:postcode": "110075", "addr:state": "Delhi", "amenity": "hospital", "name": "Manipal Hospitals", "source": "Local Knowledge"}}, {"type": "node", "id": 7545203178, "lat": 28.5869919, "lon": 77.0859526, "tags": {"addr:district": "South West Delhi", "addr:full": "6, Palam Village Road, Block RZ, Raj Nagar I", "addr:postcode": "110077", "addr:state": "Delhi", "amenity": "hospital", "name": "Ardent Hospital", "source": "Local Knowledge"}}, {"type": "node", "id": 7545203184, "lat": 28.593462, "lon": 77.044685, "tags": {"addr:district": "South West Delhi", "addr:full": "Road Number 203, Sector 7 Extension, Sector 12, Dwarka", "addr:postcode": "110075", "addr:state": "Delhi", "amenity": "clinic", "name": "Delhi Government Clinic", "source": "Local Knowledge"}}, {"type": "node", "id": 7545203190, "lat": 28.5995579, "lon": 77.0436777, "tags": {"addr:district": "South West Delhi", "addr:full": "Flat no.373, Gangotri Apartments Road, Dwarka", "addr:postcode": "110078", "addr:state": "Delhi", "amenity": "hospital", "name": "Dwarka Heart Centre", "source": "Local Knowledge"}}, {"type": "node", "id": 7545203192, "lat": 28.5978809, "lon": 77.0351429, "tags": {"addr:district": "South West Delhi", "addr:full": "Plot 96, Sector 13, Dwarka", "addr:postcode": "110075", "addr:state": "Delhi", "amenity": "hospital", "healthcare": "hospital", "name": "Kalpavriksh Super Speciality Center", "source": "Local Knowledge"}}, {"type": "node", "id": 7545203194, "lat": 28.5831266, "lon": 77.0894978, "tags": {"addr:district": "South West Delhi", "addr:full": "Hans Medical Lane, Ram Chowk, Palam Colony, Raj Nagar I", "addr:postcode": "110077", "addr:state": "Delhi", "amenity": "doctors", "name": "Dr Sunita Shastri", "source": "Local Knowledge"}}, {"type": "node", "id": 7545203208, "lat": 28.5881804, "lon": 77.0596665, "tags": {"addr:district": "South West Delhi", "addr:full": "Sector 10, Dwarka, Elephenta Line, Near Pacific Apartments", "addr:postcode": "110075", "addr:state": "Delhi", "amenity": "hospital", "name": "Ayushman Hospital", "source": "Local Knowledge"}}, {"type": "node", "id": 7545203211, "lat": 28.5832155, "lon": 77.0442082, "tags": {"addr:district": "South West Delhi", "addr:full": "Aksharoadham Apartment, sector 19, Dwarka", "addr:postcode": "110075", "addr:state": "Delhi", "amenity": "clinic", "name": "Dr Shalini Chaudhary's Mother Care Clinic", "source": "Local Knowledge"}}, {"type": "node", "id": 7545203214, "lat": 28.5946941, "lon": 77.0688804, "tags": {"addr:district": "South West Delhi", "addr:full": "Palam Vihar, Sector 6, Dwarka", "addr:postcode": "110075", "addr:state": "Delhi", "amenity": "clinic", "name": "Swastik clinic", "source": "Local Knowledge"}}, {"type": "node", "id": 7545203218, "lat": 28.6051867, "lon": 77.0984624, "tags": {"addr:district": "South West Delhi", "addr:full": "Geetanjali Park, Block RZ, West Sagarpur, Sagar Pur", "addr:postcode": "110046", "addr:state": "Delhi", "amenity": "hospital", "name": "Bhagat Chandra Hospital", "source": "Local Knowledge"}}, {"type": "node", "id": 7545203223, "lat": 28.614656, "lon": 77.0874447, "tags": {"addr:district": "South West Delhi", "addr:full": "C-3/91-92, Major P Srikumar Marg, Block C3A, Block C3, Janakpuri", "addr:postcode": "110058", "addr:state": "Delhi", "amenity": "hospital", "name": "Orchid Hospital Maternity and Heart Centre", "source": "Local Knowledge"}}, {"type": "node", "id": 7545203224, "lat": 28.6197885, "lon": 77.0684856, "tags": {"addr:district": "South West Delhi", "addr:full": "Mahavir Enclave, D- 293, 55, Part III, Gali Number 21", "addr:postcode": "110059", "addr:state": "Delhi", "amenity": "clinic", "name": "Public Health Centre", "source": "Local Knowledge"}}, {"type": "node", "id": 7545203231, "lat": 28.614442, "lon": 77.071139, "tags": {"addr:district": "South West Delhi", "addr:full": "Ez a1, Adarsh Nagar, Bindapur Extn, Uttam Nagar", "addr:postcode": "110059", "addr:state": "Delhi", "amenity": "hospital", "name": "Apaar Nursing Home", "source": "Local Knowledge"}}, {"type": "node", "id": 7545203232, "lat": 28.6166831, "lon": 77.0316366, "tags": {"addr:district": "South West Delhi", "addr:full": "B-92, Pipe Line, Patel Garden, Kakrola", "addr:postcode": "110059", "addr:state": "Delhi", "amenity": "hospital", "check_date": "2024-05-10", "name": "Dwarka Hospital", "source": "Local Knowledge"}}, {"type": "node", "id": 7545203241, "lat": 28.5870577, "lon": 77.0857082, "tags": {"addr:district": "South West Delhi", "addr:full": "Pillar No.39, RZ-14, 40, Palam Colony, Raj Nagar", "addr:postcode": "110045", "addr:state": "Delhi", "amenity": "hospital", "name": "Angel Agastya Multi Speciality Hospital", "source": "Local Knowledge"}}, {"type": "node", "id": 7545203250, "lat": 28.6194069, "lon": 77.0291453, "tags": {"addr:district": "South West Delhi", "addr:full": "Metro Pillar Number 793, Vipin Garden, Dwarka", "addr:postcode": "110078", "addr:state": "Delhi", "amenity": "hospital", "name": "Dwarka New Born and Child Hospital", "source": "Local Knowledge"}}, {"type": "node", "id": 7545203252, "lat": 28.5941071, "lon": 77.0426925, "tags": {"addr:district": "South West Delhi", "addr:full": "42, Road Number 203, Parmanand Colony, Dwarka", "addr:postcode": "110075", "addr:state": "Delhi", "amenity": "hospital", "name": "Lifeline Hospital", "source": "Local Knowledge"}}, {"type": "node", "id": 7545203254, "lat": 28.6186477, "lon": 77.0623437, "tags": {"addr:district": "South West Delhi", "addr:full": "Vijay Vihar, Vani Vihar, New Uttam Nagar, Bindapur", "addr:postcode": "110059", "addr:state": "Delhi", "amenity": "hospital", "name": "Chander Leela Hospital", "source": "Local Knowledge"}}, {"type": "node", "id": 9494362823, "lat": 28.598252, "lon": 77.0223629}, {"type": "node", "id": 10314282871, "lat": 28.5764608, "lon": 77.0675724, "tags": {"amenity": "hospital", "healthcare": "hospital", "name": "SITE"}}, {"type": "node", "id": 10314282872, "lat": 28.576984, "lon": 77.0660212}, {"type": "node", "id": 10314282873, "lat": 28.578005, "lon": 77.067001}, {"type": "node", "id": 10314282874, "lat": 28.5766019, "lon": 77.069111}, {"type": "node", "id": 10314282875, "lat": 28.5755487, "lon": 77.0682369}, {"type": "node", "id": 11021416376, "lat": 28.6095296, "lon": 77.08223}, {"type": "node", "id": 11697720523, "lat": 28.6053767, "lon": 77.0536459, "tags": {"amenity": "hospital", "healthcare": "hospital", "name": "Aakash Hospital"}}, {"type": "node", "id": 11698355649, "lat": 28.6063225, "lon": 77.0526152, "tags": {"amenity": "hospital", "healthcare": "hospital", "name": "Injury Centre"}}, {"type": "node", "id": 11738339138, "lat": 28.5903128, "lon": 77.0882874}, {"type": "node", "id": 11738339139, "lat": 28.590312, "lon": 77.0883413}, {"type": "node", "id": 11738339140, "lat": 28.5902654, "lon": 77.0883449}, {"type": "node", "id": 11738339141, "lat": 28.5902654, "lon": 77.0882937}, {"type": "node", "id": 11768481227, "lat": 28.6101678, "lon": 77.0823507}, {"type": "node", "id": 11768481228, "lat": 28.6100397, "lon": 77.0826876}, {"type": "node", "id": 11768481229, "lat": 28.6095725, "lon": 77.0823957}, {"type": "node", "id": 11768481230, "lat": 28.609727, "lon": 77.0818936}, {"type": "node", "id": 11768481231, "lat": 28.6101226, "lon": 77.0821468}, {"type": "node", "id": 11916134027, "lat": 28.6172493, "lon": 77.0305823, "tags": {"amenity": "hospital", "check_date": "2024-05-18", "healthcare": "hospital", "name": "Ravi Nursing Home", "name:hi": "\u0930\u0935\u093f \u0928\u0930\u094d\u0938\u093f\u0902\u0917 \u0939\u094b\u092e", "operator:type": "private"}}, {"type": "node", "id": 11916137243, "lat": 28.6172043, "lon": 77.0306765, "tags": {"amenity": "clinic", "check_date": "2024-05-18", "healthcare": "clinic", "healthcare:speciality": "dentistry;dentist", "name": "The Anchor Dental Clinic", "operator:type": "private"}}, {"type": "node", "id": 11946772369, "lat": 28.6136582, "lon": 77.0326356, "tags": {"amenity": "clinic", "check_date": "2024-05-31", "healthcare": "clinic", "healthcare:speciality": "fertility", "name": "Benison IVF & Healthcare Clinic", "operator": "Datta Healthcare", "operator:type": "private", "phone": "+91 72900 23950", "website": "https://www.benisonivf.com"}}, {"type": "node", "id": 11947456407, "lat": 28.5941155, "lon": 77.0171182, "tags": {"amenity": "clinic", "healthcare": "clinic", "name": "Medical room IPU"}}, {"type": "node", "id": 12385655738, "lat": 28.584057, "lon": 77.0715242, "tags": {"amenity": "doctors", "check_date": "2024-11-30", "healthcare": "doctor", "healthcare:speciality": "dermatology", "level": "1", "name": "Skin Clinic"}}, {"type": "node", "id": 12385665493, "lat": 28.5842892, "lon": 77.0715181, "tags": {"amenity": "clinic", "check_date": "2024-11-30", "healthcare": "clinic", "name": "Prime IVF Centre"}}, {"type": "node", "id": 12390182094, "lat": 28.6149948, "lon": 77.0329543, "tags": {"amenity": "clinic", "check_date": "2024-12-02", "healthcare": "clinic", "name": "Dr Pathak Clinic"}}, {"type": "node", "id": 12451177806, "lat": 28.6164963, "lon": 77.0331654, "tags": {"addr:floor": "G", "amenity": "doctors", "check_date": "2024-12-25", "healthcare": "doctor", "healthcare:speciality": "radiology", "level": "0", "name": "Moon Star Imaging And Path Lab"}}, {"type": "node", "id": 12475795480, "lat": 28.6160624, "lon": 77.0284304, "tags": {"addr:floor": "G", "amenity": "doctors", "check_date": "2025-01-05", "healthcare": "doctor", "healthcare:speciality": "psychiatry", "level": "0", "name": "\u092e\u0928Psyche Clinic"}}, {"type": "node", "id": 12548074466, "lat": 28.5876255, "lon": 77.0713148, "tags": {"amenity": "clinic", "check_date": "2025-02-01", "healthcare": "clinic", "level": "-1", "name": "Milkos Cosmetic Dental Clinic"}}, {"type": "node", "id": 12588966448, "lat": 28.5886946, "lon": 77.0714085, "tags": {"amenity": "clinic", "check_date": "2025-02-15", "healthcare": "clinic", "level": "1", "name": "Dr Brijmohan Arora"}}, {"type": "node", "id": 12588966449, "lat": 28.5886934, "lon": 77.0714222, "tags": {"amenity": "clinic", "check_date": "2025-02-15", "healthcare": "clinic", "level": "1", "name": "Med Care Multi-speciality Medical And Dental Laser Center"}}, {"type": "node", "id": 12588984973, "lat": 28.5898063, "lon": 77.0714444, "tags": {"amenity": "clinic", "check_date": "2025-02-15", "healthcare": "clinic", "level": "1", "name": "Indira IVF"}}, {"type": "node", "id": 12629818766, "lat": 28.5963102, "lon": 77.0451265}, {"type": "node", "id": 12629818767, "lat": 28.5960434, "lon": 77.045515}, {"type": "node", "id": 12629818768, "lat": 28.5965053, "lon": 77.0458977}, {"type": "node", "id": 12629818769, "lat": 28.5967761, "lon": 77.04552}, {"type": "node", "id": 12647113752, "lat": 28.5964346, "lon": 77.0400311, "tags": {"amenity": "hospital", "healthcare": "hospital", "name": "Apollo Fertility", "operator": "Apollo Hospitals", "operator:type": "private", "operator:wikidata": "Q4780321"}}, {"type": "node", "id": 12647113757, "lat": 28.59532, "lon": 77.0409497, "tags": {"amenity": "clinic", "healthcare": "clinic", "level": "0", "name": "Pinaak Health Care"}}, {"type": "node", "id": 12647123146, "lat": 28.5966661, "lon": 77.0396859, "tags": {"amenity": "clinic", "healthcare": "clinic", "healthcare:speciality": "orthopaedics", "name": "QI Spine"}}, {"type": "node", "id": 12822655206, "lat": 28.5813454, "lon": 77.0620495}, {"type": "node", "id": 12822655207, "lat": 28.5813053, "lon": 77.0616305}, {"type": "node", "id": 12822655208, "lat": 28.5797244, "lon": 77.0602733}, {"type": "node", "id": 12822655209, "lat": 28.5802198, "lon": 77.0637351}, {"type": "node", "id": 12822655210, "lat": 28.5784147, "lon": 77.0622212}, {"type": "node", "id": 12969324748, "lat": 28.5966675, "lon": 77.0396743, "tags": {"addr:block": "A", "addr:district": "New Delhi", "addr:floor": "2", "addr:housenumber": "28", "addr:place": "Dwarka Sector 12", "addr:postcode": "110075", "addr:street": "Dwarka Sector 12A Road", "amenity": "clinic", "contact:facebook": "https://www.facebook.com/anvayahealthcareclinic/", "description": "Anvaya Healthcare is a mental health clinic in Dwarka, Delhi. Anvaya Healthcare provides counselling, therapy, and psychiatry-related services for mental well-being. The team consists of mental health experts, including psychiatrists and psychologists.", "email": "info@anvayahealthcare.com", "emergency": "yes", "fax": "+91 98106 59825", "healthcare": "clinic", "healthcare:speciality": "psychiatry;psychotherapist;psychology;neuropsychiatry", "image": "https://anvayahealthcare.com/wp-content/uploads/2024/12/cropped-Anvaya-Healthcare-Logo.png", "level": "2", "loc_name": "Anvaya Healthcare", "mobile": "+91 98106 59825", "name": "Anvaya Healthcare", "official_name": "Anvaya Healthcare", "opening_hours": "Mo-Sa 09:00-18:00", "website": "https://anvayahealthcare.in", "wheelchair": "yes"}}, {"type": "node", "id": 13227565031, "lat": 28.5944341, "lon": 77.0475978, "tags": {"amenity": "clinic", "healthcare": "clinic", "healthcare:speciality": "gynaecology;obstetrics", "name": "Ipsita Medicare", "operator": "Doctor Nileshma Pandey"}}, {"type": "node", "id": 13227576855, "lat": 28.5932654, "lon": 77.0466196, "tags": {"amenity": "clinic", "healthcare": "clinic", "healthcare:speciality": "Nutrition", "level": "0", "name": "Doctor Sugeeta Mutreja's Diets and Nutrition Clinic"}}, {"type": "way", "id": 58763912, "nodes": [728300516, 728300536, 728300509, 2000516504, 728300516], "tags": {"addr:district": "South West", "addr:full": "Dwarka Sub-City, Sector-12, Dwarka", "addr:postcode": "110075", "addr:state": "Delhi", "amenity": "hospital", "barrier": "wall", "check_date": "2025-03-09", "description": "100-500 Bedded Hospital", "healthcare": "hospital", "name": "Bensups Hospital", "source": "OpenGovernmentData"}}, {"type": "way", "id": 209295081, "nodes": [2195195228, 2195195207, 2195195212, 2195195219, 2195195225, 2195195222, 2195195221, 9494362823, 2195195209, 2195195228], "tags": {"amenity": "hospital"}}, {"type": "way", "id": 215266291, "nodes": [2246706233, 2246706236, 2197445993, 2197443653, 2246706233], "tags": {"amenity": "hospital", "barrier": "wall"}}, {"type": "way", "id": 260463360, "nodes": [2659477009, 2659476991, 2659477034, 2659476963, 2659476952, 2659477009], "tags": {"amenity": "hospital", "name": "Dispensary"}}, {"type": "way", "id": 260463370, "nodes": [2659477050, 2659477026, 2659476913, 2659476979, 2659477050], "tags": {"amenity": "hospital", "healthcare": "hospital", "name": "ESI", "operator": "Employees' State Insurance", "operator:short": "ESI", "operator:wikidata": "Q3595726"}}, {"type": "way", "id": 290698574, "nodes": [2838850129, 2942071931, 2942071930, 2942071929, 2838850129], "tags": {"amenity": "hospital", "barrier": "wall"}}, {"type": "way", "id": 290698575, "nodes": [2942071929, 2838850123, 2838850128, 2203319722, 2203319723, 2942071931, 2942071930, 2942071929], "tags": {"amenity": "hospital", "barrier": "wall"}}, {"type": "way", "id": 662185788, "nodes": [6199393220, 6199393219, 6199393209, 6199393212, 6199393218, 6199393217, 6199393216, 6199393215, 6199393214, 6199393220], "tags": {"amenity": "hospital", "name": "Primary Health Centre"}}, {"type": "way", "id": 782378314, "nodes": [7305795496, 7305795497, 7305795498, 2837721615, 7305795496], "tags": {"addr:city": "New Delhi", "addr:postcode": "110045", "addr:street": "Sector 1 Dwarka", "amenity": "hospital", "healthcare": "hospital", "name": "Maharaja Agrasen Hospital", "name:etymology:wikidata": "Q2721961", "operator": "Maharaja Agrasen Group of Hospitals"}}, {"type": "way", "id": 1128182482, "nodes": [10314282872, 10314282873, 10314282874, 10314282875, 10314282872], "tags": {"amenity": "hospital", "healthcare": "hospital", "name": "SITE BOUNDARY"}}, {"type": "way", "id": 1263403980, "nodes": [11738339138, 11738339139, 11738339140, 11738339141, 11738339138], "tags": {"amenity": "clinic", "building": "yes", "healthcare": "clinic", "healthcare:speciality": "general", "name": "Govt clinic", "opening_hours": "Mo-Sa 08:00-20:00", "operator": "Doctor", "operator:type": "government"}}, {"type": "way", "id": 1267054047, "nodes": [11768481227, 11768481228, 11768481229, 11021416376, 11768481230, 11768481231, 11768481227], "tags": {"addr:city": "New Delhi", "addr:district": "Dwarka South West", "addr:housenumber": "Dabri Village", "addr:postcode": "110045", "addr:street": "Dabri Palam Road", "amenity": "hospital", "healthcare": "hospital", "healthcare:speciality": "paediatrics;gynaecology", "name": "Shri Dada Dev Matri Avum Shishu Chikitsalaya", "operator": "Delhi Government"}}, {"type": "way", "id": 1363969237, "nodes": [12629818766, 12629818767, 12629818768, 12629818769, 12629818766], "tags": {"amenity": "hospital", "healthcare": "hospital", "name": "Medeor Hospital"}}, {"type": "way", "id": 1384923957, "nodes": [12822655209, 12822655210, 12822655208, 12822655207, 12822655206, 12822655209], "tags": {"amenity": "hospital", "beds": "1725", "email": "ighofficedwarka@gmail.com", "healthcare": "hospital", "mobile": "+91 99106 31876", "name": "Indira Gandhi Hospital", "name:etymology:wikidata": "Q1149", "operator": "Government of Delhi"}}]}